[{"OBJECT_NAME":"METEOR-M 2","OBJECT_ID":"2014-037A","EPOCH":"2026-03-09T23:09:30.537792","MEAN_MOTION":14.21428734,"ECCENTRICITY":0.00053128,"INCLINATION":98.5035,"RA_OF_ASC_NODE":48.2672,"ARG_OF_PERICENTER":336.7967,"MEAN_ANOMALY":23.2971,"EPHEMERIS_TYPE":0,"CLASSIFICATION_TYPE":"U","NORAD_CAT_ID":40069,"ELEMENT_SET_NO":999,"REV_AT_EPOCH":60522,"BSTAR":2.6040138e-5,"MEAN_MOTION_DOT":1.5e-7,"MEAN_MOTION_DDOT":0},{"OBJECT_NAME":"NOAA 16 DEB","OBJECT_ID":"2000-055QX","EPOCH":"2026-03-05T21:56:56.884992","MEAN_MOTION":14.15346796,"ECCENTRICITY":0.00371432,"INCLINATION":98.6914,"RA_OF_ASC_NODE":93.1327,"ARG_OF_PERICENTER":173.2233,"MEAN_ANOMALY":186.9451,"EPHEMERIS_TYPE":0,"CLASSIFICATION_TYPE":"U","NORAD_CAT_ID":42355,"ELEMENT_SET_NO":999,"REV_AT_EPOCH":51599,"BSTAR":0.0014070955,"MEAN_MOTION_DOT":2.717e-5,"MEAN_MOTION_DDOT":0}]
